<?xml version="1.0" encoding="UTF-8"?>
<gpx creator="https://gpx.studio" version="1.1" xmlns="http://www.topografix.com/GPX/1/1" xmlns:xsi="http://www.w3.org/2001/XMLSchema-instance" xsi:schemaLocation="http://www.topografix.com/GPX/1/1 http://www.topografix.com/GPX/1/1/gpx.xsd http://www.garmin.com/xmlschemas/GpxExtensions/v3 http://www.garmin.com/xmlschemas/GpxExtensionsv3.xsd http://www.garmin.com/xmlschemas/TrackPointExtension/v1 http://www.garmin.com/xmlschemas/TrackPointExtensionv1.xsd http://www.garmin.com/xmlschemas/PowerExtension/v1 http://www.garmin.com/xmlschemas/PowerExtensionv1.xsd http://www.topografix.com/GPX/gpx_style/0/2 http://www.topografix.com/GPX/gpx_style/0/2/gpx_style.xsd" xmlns:gpxtpx="http://www.garmin.com/xmlschemas/TrackPointExtension/v1" xmlns:gpxx="http://www.garmin.com/xmlschemas/GpxExtensions/v3" xmlns:gpxpx="http://www.garmin.com/xmlschemas/PowerExtension/v1" xmlns:gpx_style="http://www.topografix.com/GPX/gpx_style/0/2">
  <metadata>
    <name>New file 14</name>
    <author>
      <name>gpx.studio</name>
      <link href="https://gpx.studio"/>
    </author>
  </metadata>
  <trk>
    <name>New file 14</name>
    <trkseg>
      <trkpt lat="35.89372472116321" lon="14.509207758531943">
        <ele>36.95495544595303</ele>
      </trkpt>
      <trkpt lat="35.89369832690922" lon="14.509086742515166">
        <ele>37.037949401432506</ele>
      </trkpt>
      <trkpt lat="35.89367947386532" lon="14.508975035422765">
        <ele>37.54741026174001</ele>
      </trkpt>
      <trkpt lat="35.89364302463456" lon="14.508847813456072">
        <ele>38.27096766083567</ele>
      </trkpt>
      <trkpt lat="35.893642" lon="14.508836">
        <ele>39.04</ele>
      </trkpt>
      <trkpt lat="35.893568" lon="14.508842">
        <ele>38.94</ele>
      </trkpt>
      <trkpt lat="35.893506" lon="14.508708">
        <ele>39.7</ele>
      </trkpt>
      <trkpt lat="35.893484" lon="14.508739">
        <ele>39.22</ele>
      </trkpt>
      <trkpt lat="35.893432" lon="14.508815">
        <ele>38.06</ele>
      </trkpt>
      <trkpt lat="35.893284" lon="14.508588">
        <ele>37.89</ele>
      </trkpt>
      <trkpt lat="35.893225" lon="14.508498">
        <ele>37.82</ele>
      </trkpt>
      <trkpt lat="35.892682" lon="14.508699">
        <ele>26.62</ele>
      </trkpt>
      <trkpt lat="35.892678" lon="14.5087">
        <ele>24.52403182600392</ele>
      </trkpt>
      <trkpt lat="35.89261247726208" lon="14.508720576171612">
        <ele>23.76953078480437</ele>
      </trkpt>
      <trkpt lat="35.892563458666245" lon="14.508677134524248">
        <ele>23.923177963937636</ele>
      </trkpt>
      <trkpt lat="35.89252826580926" lon="14.508588699742802">
        <ele>24.700451908400282</ele>
      </trkpt>
      <trkpt lat="35.892495586714205" lon="14.508508022398786">
        <ele>25.51766567741288</ele>
      </trkpt>
      <trkpt lat="35.89246039382704" lon="14.508428896541687">
        <ele>26.175067483680323</ele>
      </trkpt>
      <trkpt lat="35.89243274226183" lon="14.508425793566317">
        <ele>26.1027629346936</ele>
      </trkpt>
      <trkpt lat="35.89239754934741" lon="14.508438205466035">
        <ele>25.867773133679293</ele>
      </trkpt>
      <trkpt lat="35.892352301290344" lon="14.508449065877244">
        <ele>25.610188165330328</ele>
      </trkpt>
      <trkpt lat="35.89232087901422" lon="14.508458374801592">
        <ele>25.415869680524338</ele>
      </trkpt>
      <trkpt lat="35.89228568604939" lon="14.508470786701338">
        <ele>25.180879876716062</ele>
      </trkpt>
      <trkpt lat="35.892261805100034" lon="14.50848630157472">
        <ele>24.95668453176193</ele>
      </trkpt>
      <trkpt lat="35.89224923617694" lon="14.508529743222056">
        <ele>24.534027039741233</ele>
      </trkpt>
      <trkpt lat="35.89226431888491" lon="14.508630589902424">
        <ele>23.657099983666388</ele>
      </trkpt>
      <trkpt lat="35.89228191537373" lon="14.508736091045847">
        <ele>22.02046684756322</ele>
      </trkpt>
      <trkpt lat="35.89230328253343" lon="14.508833834751698">
        <ele>20.42200935562771</ele>
      </trkpt>
      <trkpt lat="35.89232213590505" lon="14.508957953742964">
        <ele>18.155741575731064</ele>
      </trkpt>
      <trkpt lat="35.89235732885366" lon="14.509116205457275">
        <ele>15.961403442313895</ele>
      </trkpt>
      <trkpt lat="35.892378695993045" lon="14.509198434289715">
        <ele>15.020999317988753</ele>
      </trkpt>
      <trkpt lat="35.892398806237054" lon="14.509282214609044">
        <ele>14.308866827050224</ele>
      </trkpt>
      <trkpt lat="35.89243022848292" lon="14.50936444344066">
        <ele>13.654622115660459</ele>
      </trkpt>
      <trkpt lat="35.89250941248673" lon="14.509547518953553">
        <ele>11.225119792972691</ele>
      </trkpt>
      <trkpt lat="35.89260116528112" lon="14.509756969751805">
        <ele>9.170605765926714</ele>
      </trkpt>
      <trkpt lat="35.89268286288612" lon="14.509931329724822">
        <ele>7.617958962618758</ele>
      </trkpt>
      <trkpt lat="35.892724340098965" lon="14.509994940707713">
        <ele>7.180160333349169</ele>
      </trkpt>
      <trkpt lat="35.892755806901235" lon="14.5100765749402">
        <ele>5.8787545180528005</ele>
      </trkpt>
      <trkpt lat="35.89289155030093" lon="14.510261201940722">
        <ele>4.200482512355886</ele>
      </trkpt>
      <trkpt lat="35.89300969714486" lon="14.510428762579323">
        <ele>3.206796666828923</ele>
      </trkpt>
      <trkpt lat="35.89309390808495" lon="14.510557536032849">
        <ele>2.599841483817437</ele>
      </trkpt>
      <trkpt lat="35.8931756051809" lon="14.510666140150732">
        <ele>3.235568160718609</ele>
      </trkpt>
      <trkpt lat="35.893268614079105" lon="14.510799568066403">
        <ele>3.879181376782973</ele>
      </trkpt>
      <trkpt lat="35.89329249472482" lon="14.51086783351235">
        <ele>3.850197804063307</ele>
      </trkpt>
      <trkpt lat="35.89331511848758" lon="14.511035394150952">
        <ele>3.4140215560124374</ele>
      </trkpt>
      <trkpt lat="35.89333397161826" lon="14.511128483394629">
        <ele>3.3832810531603172</ele>
      </trkpt>
      <trkpt lat="35.89336910416672" lon="14.511234169513187">
        <ele>3.6045756640378386</ele>
      </trkpt>
      <trkpt lat="35.89341058102002" lon="14.511418796513738">
        <ele>3.4694505333440504</ele>
      </trkpt>
      <trkpt lat="35.893448287231436" lon="14.511522746169447">
        <ele>3.771298205510449</ele>
      </trkpt>
      <trkpt lat="35.89351615836678" lon="14.511712027631319">
        <ele>4.010390742736584</ele>
      </trkpt>
      <trkpt lat="35.89358654318684" lon="14.511895103144184">
        <ele>3.4185410553962576</ele>
      </trkpt>
      <trkpt lat="35.89366195542412" lon="14.51202697957217">
        <ele>3.1449505427087185</ele>
      </trkpt>
      <trkpt lat="35.89374993627639" lon="14.512171267899902">
        <ele>3.4436072542896294</ele>
      </trkpt>
      <trkpt lat="35.8938643037165" lon="14.512317126280749">
        <ele>4.561971986632182</ele>
      </trkpt>
      <trkpt lat="35.89399501775665" lon="14.512464517583794">
        <ele>6.029861262364217</ele>
      </trkpt>
      <trkpt lat="35.894062888423264" lon="14.512551400877584">
        <ele>6.926338148186915</ele>
      </trkpt>
      <trkpt lat="35.89413327275726" lon="14.512625872272565">
        <ele>9.00400491745743</ele>
      </trkpt>
      <trkpt lat="35.894221253085774" lon="14.512737579364966">
        <ele>11.568252124702234</ele>
      </trkpt>
      <trkpt lat="35.89429666471844" lon="14.512819808196582">
        <ele>13.636913003374762</ele>
      </trkpt>
      <trkpt lat="35.89436801430611" lon="14.512928277408975">
        <ele>14.088087038338605</ele>
      </trkpt>
      <trkpt lat="35.89448615894668" lon="14.513114455896357">
        <ele>10.176310380421155</ele>
      </trkpt>
      <trkpt lat="35.894557799759696" lon="14.513216854064382">
        <ele>7.618440769793452</ele>
      </trkpt>
      <trkpt lat="35.89462403068886" lon="14.513281544481714">
        <ele>6.337269909563474</ele>
      </trkpt>
      <trkpt lat="35.89468310283981" lon="14.513309471254843">
        <ele>6.952446172179579</ele>
      </trkpt>
      <trkpt lat="35.894787421637844" lon="14.513343603977773">
        <ele>7.795092053550159</ele>
      </trkpt>
      <trkpt lat="35.89485403477383" lon="14.513368427775532">
        <ele>7.60945155834099</ele>
      </trkpt>
      <trkpt lat="35.894914363603505" lon="14.513390148599626">
        <ele>7.2903451811289415</ele>
      </trkpt>
      <trkpt lat="35.89493203406653" lon="14.513430640705081">
        <ele>5.766229058383033</ele>
      </trkpt>
      <trkpt lat="35.89493831831537" lon="14.513464773428069">
        <ele>4.589926855214596</ele>
      </trkpt>
      <trkpt lat="35.89500493132503" lon="14.513481839789137">
        <ele>4.61608325278522</ele>
      </trkpt>
      <trkpt lat="35.89507405797298" lon="14.513502009125546">
        <ele>4.728666250128298</ele>
      </trkpt>
      <trkpt lat="35.89514318456132" lon="14.513526832923276">
        <ele>4.823565994389354</ele>
      </trkpt>
      <trkpt lat="35.895238704838405" lon="14.513553208209544">
        <ele>5.375287760921918</ele>
      </trkpt>
      <trkpt lat="35.8953606261544" lon="14.513595098363112">
        <ele>5.78314358323283</ele>
      </trkpt>
      <trkpt lat="35.89549008088342" lon="14.513626128110673">
        <ele>6.616821973707206</ele>
      </trkpt>
      <trkpt lat="35.8956145080446" lon="14.51366336380815">
        <ele>7.5032144210289005</ele>
      </trkpt>
      <trkpt lat="35.895717298382095" lon="14.51369439355446">
        <ele>8.651499944057116</ele>
      </trkpt>
      <trkpt lat="35.895771342371035" lon="14.513699048016633">
        <ele>9.963421874903338</ele>
      </trkpt>
      <trkpt lat="35.89581281795873" lon="14.513655606363841">
        <ele>12.366585811546628</ele>
      </trkpt>
      <trkpt lat="35.895826" lon="14.513607">
        <ele>19.33</ele>
      </trkpt>
      <trkpt lat="35.89595" lon="14.513595">
        <ele>23.31</ele>
      </trkpt>
      <trkpt lat="35.896001" lon="14.513587">
        <ele>20.177679348483206</ele>
      </trkpt>
      <trkpt lat="35.896045714642796" lon="14.513600224847352">
        <ele>21.305316636426504</ele>
      </trkpt>
      <trkpt lat="35.896083419599165" lon="14.513611085259356">
        <ele>22.30860846520053</ele>
      </trkpt>
      <trkpt lat="35.89612615186154" lon="14.513604879309526">
        <ele>23.985123942276925</ele>
      </trkpt>
      <trkpt lat="35.89615254530608" lon="14.513637460544771">
        <ele>24.23666642626744</ele>
      </trkpt>
      <trkpt lat="35.89621412997529" lon="14.513733652762966">
        <ele>25.430626625994318</ele>
      </trkpt>
      <trkpt lat="35.89628451239669" lon="14.513859323241945">
        <ele>26.54720730226196</ele>
      </trkpt>
      <trkpt lat="35.896446643083735" lon="14.514160311791443">
        <ele>26.96537439159695</ele>
      </trkpt>
      <trkpt lat="35.89651576847348" lon="14.514279776320564">
        <ele>27.11741274576439</ele>
      </trkpt>
      <trkpt lat="35.896625112148186" lon="14.514506293479911">
        <ele>26.872283335841605</ele>
      </trkpt>
      <trkpt lat="35.89668166916201" lon="14.514605588673447">
        <ele>27.828708888449068</ele>
      </trkpt>
      <trkpt lat="35.896721887458156" lon="14.514701780891642">
        <ele>28.052696785445246</ele>
      </trkpt>
      <trkpt lat="35.89685625648691" lon="14.515004218402765">
        <ele>28.16230276529546</ele>
      </trkpt>
      <trkpt lat="35.89694046333605" lon="14.515160918629363">
        <ele>27.922780867498936</ele>
      </trkpt>
      <trkpt lat="35.89696685650907" lon="14.515227632587596">
        <ele>27.50482779377488</ele>
      </trkpt>
      <trkpt lat="35.89696937014459" lon="14.515291243570516">
        <ele>25.95692708141792</ele>
      </trkpt>
      <trkpt lat="35.896914070154224" lon="14.51534089116771">
        <ele>21.667273576535635</ele>
      </trkpt>
      <trkpt lat="35.89685625648691" lon="14.515401399176056">
        <ele>16.960565886925906</ele>
      </trkpt>
      <trkpt lat="35.89678461775388" lon="14.515457252722285">
        <ele>12.078476213468875</ele>
      </trkpt>
      <trkpt lat="35.8967921586557" lon="14.515530172596186">
        <ele>10.787612755516527</ele>
      </trkpt>
      <trkpt lat="35.896807240498205" lon="14.515587577629248">
        <ele>10.498476798619599</ele>
      </trkpt>
      <trkpt lat="35.89684117463328" lon="14.515595335066763">
        <ele>11.759006146849568</ele>
      </trkpt>
      <trkpt lat="35.89689773149277" lon="14.515581371680213">
        <ele>14.896658570441438</ele>
      </trkpt>
      <trkpt lat="35.89698193829783" lon="14.515564305318321">
        <ele>19.627187501563174</ele>
      </trkpt>
      <trkpt lat="35.89707745635555" lon="14.515541033007395">
        <ele>25.613788532742177</ele>
      </trkpt>
      <trkpt lat="35.89710872464009" lon="14.515683769837352">
        <ele>23.67473480240187</ele>
      </trkpt>
      <trkpt lat="35.89716528130843" lon="14.515925801870964">
        <ele>21.583030714720405</ele>
      </trkpt>
      <trkpt lat="35.89720926980077" lon="14.516096465484083">
        <ele>21.256670537986793</ele>
      </trkpt>
      <trkpt lat="35.89726708321027" lon="14.516237650837297">
        <ele>22.764311545009424</ele>
      </trkpt>
      <trkpt lat="35.897317355705326" lon="14.516403659988242">
        <ele>23.466627718284453</ele>
      </trkpt>
      <trkpt lat="35.897338721506685" lon="14.516487440307571">
        <ele>23.481924177527418</ele>
      </trkpt>
      <trkpt lat="35.897350032810735" lon="14.516585184013422">
        <ele>22.969175602757048</ele>
      </trkpt>
      <trkpt lat="35.89736762816909" lon="14.516690685156846">
        <ele>22.976172150639727</ele>
      </trkpt>
      <trkpt lat="35.89739653482029" lon="14.516796037046646">
        <ele>23.654490582435514</ele>
      </trkpt>
      <trkpt lat="35.89744429361345" lon="14.516898435214728">
        <ele>25.066070593286106</ele>
      </trkpt>
      <trkpt lat="35.897473200238" lon="14.516966700659822">
        <ele>25.596992967120542</ele>
      </trkpt>
      <trkpt lat="35.89750839089679" lon="14.51700393635727">
        <ele>26.64251486264455</ele>
      </trkpt>
      <trkpt lat="35.89749959323339" lon="14.517076856265362">
        <ele>25.626729050301947</ele>
      </trkpt>
      <trkpt lat="35.89748828195074" lon="14.517109437500693">
        <ele>25.084444901614916</ele>
      </trkpt>
      <trkpt lat="35.897473" lon="14.517169">
        <ele>28.86</ele>
      </trkpt>
      <trkpt lat="35.897472" lon="14.517177">
        <ele>28.76</ele>
      </trkpt>
      <trkpt lat="35.897447" lon="14.517263">
        <ele>27.79</ele>
      </trkpt>
      <trkpt lat="35.897475" lon="14.517293">
        <ele>28.39</ele>
      </trkpt>
      <trkpt lat="35.897482" lon="14.517315">
        <ele>28.54</ele>
      </trkpt>
      <trkpt lat="35.897475" lon="14.51737">
        <ele>28.38</ele>
      </trkpt>
      <trkpt lat="35.897438" lon="14.517403">
        <ele>27.6</ele>
      </trkpt>
      <trkpt lat="35.897439" lon="14.517422">
        <ele>27.62</ele>
      </trkpt>
      <trkpt lat="35.897442" lon="14.517486">
        <ele>27.68</ele>
      </trkpt>
      <trkpt lat="35.89752" lon="14.517449">
        <ele>29.35</ele>
      </trkpt>
      <trkpt lat="35.897549" lon="14.517562">
        <ele>29.99</ele>
      </trkpt>
      <trkpt lat="35.897579" lon="14.517575">
        <ele>30.21</ele>
      </trkpt>
      <trkpt lat="35.897588" lon="14.517579">
        <ele>30.27</ele>
      </trkpt>
      <trkpt lat="35.897622" lon="14.517718">
        <ele>29.52</ele>
      </trkpt>
      <trkpt lat="35.897576" lon="14.517726">
        <ele>29.35</ele>
      </trkpt>
      <trkpt lat="35.89757" lon="14.517727">
        <ele>29.33</ele>
      </trkpt>
      <trkpt lat="35.897571" lon="14.517756">
        <ele>29.14</ele>
      </trkpt>
      <trkpt lat="35.897564" lon="14.517782">
        <ele>28.91</ele>
      </trkpt>
      <trkpt lat="35.897549" lon="14.517803">
        <ele>28.53</ele>
      </trkpt>
      <trkpt lat="35.897528" lon="14.517815">
        <ele>27.87</ele>
      </trkpt>
      <trkpt lat="35.897528" lon="14.517877">
        <ele>26.8</ele>
      </trkpt>
      <trkpt lat="35.897569" lon="14.517862">
        <ele>27.12</ele>
      </trkpt>
      <trkpt lat="35.897677" lon="14.517822">
        <ele>27.96</ele>
      </trkpt>
      <trkpt lat="35.897707" lon="14.517951">
        <ele>24.73</ele>
      </trkpt>
      <trkpt lat="35.897432" lon="14.518023">
        <ele>18.17</ele>
      </trkpt>
      <trkpt lat="35.897344" lon="14.518046">
        <ele>16.07</ele>
      </trkpt>
      <trkpt lat="35.89736" lon="14.517912">
        <ele>21.75</ele>
      </trkpt>
      <trkpt lat="35.897334" lon="14.517756">
        <ele>22.76</ele>
      </trkpt>
      <trkpt lat="35.89732" lon="14.517672">
        <ele>22.72</ele>
      </trkpt>
      <trkpt lat="35.89724" lon="14.517319">
        <ele>19.58</ele>
      </trkpt>
      <trkpt lat="35.897299" lon="14.517277">
        <ele>22.21</ele>
      </trkpt>
      <trkpt lat="35.89736" lon="14.517235">
        <ele>24.88</ele>
      </trkpt>
      <trkpt lat="35.897435" lon="14.517196">
        <ele>22.724903802911285</ele>
      </trkpt>
      <trkpt lat="35.897452" lon="14.517187">
        <ele>28.08</ele>
      </trkpt>
      <trkpt lat="35.897472" lon="14.517177">
        <ele>28.76</ele>
      </trkpt>
      <trkpt lat="35.897489" lon="14.517094">
        <ele>29.79</ele>
      </trkpt>
      <trkpt lat="35.897527" lon="14.517057">
        <ele>26.788591636706474</ele>
      </trkpt>
      <trkpt lat="35.89759171867345" lon="14.517127418981659">
        <ele>28.533674897008947</ele>
      </trkpt>
      <trkpt lat="35.89769352002615" lon="14.517296531107974">
        <ele>30.201838290730617</ele>
      </trkpt>
      <trkpt lat="35.89778903722599" lon="14.517450128360053">
        <ele>30.70278145151678</ele>
      </trkpt>
      <trkpt lat="35.89791471757569" lon="14.517617688998683">
        <ele>29.932720010695114</ele>
      </trkpt>
      <trkpt lat="35.89805045212367" lon="14.517822485333568">
        <ele>25.11256459627333</ele>
      </trkpt>
      <trkpt lat="35.89807935852619" lon="14.517878338879797">
        <ele>23.24308087911723</ele>
      </trkpt>
      <trkpt lat="35.89808061532629" lon="14.517903162677555">
        <ele>22.51200227179571</ele>
      </trkpt>
      <trkpt lat="35.898100724113036" lon="14.517972979584329">
        <ele>18.82656730854884</ele>
      </trkpt>
      <trkpt lat="35.89814722568296" lon="14.517968325122155">
        <ele>18.63079662869203</ele>
      </trkpt>
      <trkpt lat="35.898225147170706" lon="14.517979185533363">
        <ele>17.30287727960775</ele>
      </trkpt>
      <trkpt lat="35.898261594292464" lon="14.517985391483194">
        <ele>16.82781239587348</ele>
      </trkpt>
      <trkpt lat="35.89827" lon="14.51799">
        <ele>17.83</ele>
      </trkpt>
      <trkpt lat="35.898267" lon="14.517997">
        <ele>17.49</ele>
      </trkpt>
      <trkpt lat="35.898335" lon="14.518073">
        <ele>13.53</ele>
      </trkpt>
      <trkpt lat="35.898577" lon="14.518162">
        <ele>9.49</ele>
      </trkpt>
      <trkpt lat="35.898591" lon="14.518165">
        <ele>9.47</ele>
      </trkpt>
      <trkpt lat="35.898817" lon="14.518219">
        <ele>9.22</ele>
      </trkpt>
      <trkpt lat="35.89885" lon="14.518228">
        <ele>9.31</ele>
      </trkpt>
      <trkpt lat="35.898856" lon="14.518256">
        <ele>8.23</ele>
      </trkpt>
      <trkpt lat="35.898874" lon="14.518265">
        <ele>8.14</ele>
      </trkpt>
      <trkpt lat="35.898886" lon="14.518271">
        <ele>8.08</ele>
      </trkpt>
      <trkpt lat="35.899029" lon="14.518329">
        <ele>8.67</ele>
      </trkpt>
      <trkpt lat="35.89911" lon="14.518354">
        <ele>9.67</ele>
      </trkpt>
      <trkpt lat="35.899154" lon="14.518368">
        <ele>10.21</ele>
      </trkpt>
      <trkpt lat="35.899248" lon="14.518396">
        <ele>11.63</ele>
      </trkpt>
      <trkpt lat="35.899254" lon="14.518376">
        <ele>12.65</ele>
      </trkpt>
      <trkpt lat="35.899493" lon="14.518434">
        <ele>17.04</ele>
      </trkpt>
      <trkpt lat="35.899614" lon="14.518462">
        <ele>18.55</ele>
      </trkpt>
      <trkpt lat="35.899644" lon="14.518494">
        <ele>17.76</ele>
      </trkpt>
      <trkpt lat="35.899655" lon="14.518507">
        <ele>17.46</ele>
      </trkpt>
      <trkpt lat="35.899609" lon="14.518705">
        <ele>8.67</ele>
      </trkpt>
      <trkpt lat="35.899593" lon="14.518773">
        <ele>5.64</ele>
      </trkpt>
      <trkpt lat="35.899584" lon="14.518808">
        <ele>4.24</ele>
      </trkpt>
      <trkpt lat="35.89975" lon="14.518903">
        <ele>4.2</ele>
      </trkpt>
      <trkpt lat="35.900058" lon="14.51908">
        <ele>4.11</ele>
      </trkpt>
      <trkpt lat="35.900095" lon="14.519164">
        <ele>1.87</ele>
      </trkpt>
      <trkpt lat="35.90037" lon="14.519298">
        <ele>0.56</ele>
      </trkpt>
      <trkpt lat="35.900435" lon="14.519278">
        <ele>1.25</ele>
      </trkpt>
      <trkpt lat="35.900468" lon="14.519233">
        <ele>2.01</ele>
      </trkpt>
      <trkpt lat="35.900536" lon="14.519153">
        <ele>4.65</ele>
      </trkpt>
      <trkpt lat="35.90061" lon="14.519065">
        <ele>7.53</ele>
      </trkpt>
      <trkpt lat="35.900935" lon="14.519157">
        <ele>8.47</ele>
      </trkpt>
      <trkpt lat="35.901005" lon="14.519181">
        <ele>8.65</ele>
      </trkpt>
      <trkpt lat="35.901431" lon="14.519401">
        <ele>6.97</ele>
      </trkpt>
      <trkpt lat="35.901571" lon="14.519463">
        <ele>8.04</ele>
      </trkpt>
      <trkpt lat="35.902278" lon="14.519774">
        <ele>13.4</ele>
      </trkpt>
      <trkpt lat="35.902306" lon="14.519913">
        <ele>6.355353137361817</ele>
      </trkpt>
      <trkpt lat="35.902330968958466" lon="14.519960578311043">
        <ele>5.508243677788414</ele>
      </trkpt>
      <trkpt lat="35.9024026026718" lon="14.520007122932896">
        <ele>5.954595745155112</ele>
      </trkpt>
      <trkpt lat="35.902544613175465" lon="14.520080042840164">
        <ele>7.19006794046005</ele>
      </trkpt>
      <trkpt lat="35.902672799428586" lon="14.520152962747432">
        <ele>6.868517718116718</ele>
      </trkpt>
      <trkpt lat="35.90282737668868" lon="14.520218125213802">
        <ele>5.721502612577751</ele>
      </trkpt>
      <trkpt lat="35.90289775322978" lon="14.520241397524757">
        <ele>4.808657624991611</ele>
      </trkpt>
      <trkpt lat="35.902935" lon="14.520124">
        <ele>5.42</ele>
      </trkpt>
      <trkpt lat="35.903016" lon="14.519765">
        <ele>7.73</ele>
      </trkpt>
      <trkpt lat="35.903057" lon="14.519458">
        <ele>9.1</ele>
      </trkpt>
      <trkpt lat="35.903159" lon="14.519253">
        <ele>7.95</ele>
      </trkpt>
      <trkpt lat="35.90321" lon="14.519174">
        <ele>7.34</ele>
      </trkpt>
      <trkpt lat="35.903472" lon="14.5187">
        <ele>3.11</ele>
      </trkpt>
      <trkpt lat="35.903431" lon="14.518554">
        <ele>3.88</ele>
      </trkpt>
      <trkpt lat="35.903258" lon="14.517948">
        <ele>7.08</ele>
      </trkpt>
      <trkpt lat="35.903257" lon="14.51776">
        <ele>6.23</ele>
      </trkpt>
      <trkpt lat="35.903279" lon="14.517538">
        <ele>6.57</ele>
      </trkpt>
      <trkpt lat="35.903289" lon="14.517347">
        <ele>5.93</ele>
      </trkpt>
      <trkpt lat="35.903284" lon="14.517123">
        <ele>3.37</ele>
      </trkpt>
      <trkpt lat="35.903268" lon="14.517065">
        <ele>2.69</ele>
      </trkpt>
      <trkpt lat="35.90322" lon="14.517015">
        <ele>2.78</ele>
      </trkpt>
      <trkpt lat="35.902967" lon="14.516915">
        <ele>3.4</ele>
      </trkpt>
      <trkpt lat="35.902121" lon="14.516579">
        <ele>3.5</ele>
      </trkpt>
      <trkpt lat="35.902" lon="14.516497">
        <ele>4.22</ele>
      </trkpt>
      <trkpt lat="35.901707" lon="14.516044">
        <ele>3.38</ele>
      </trkpt>
      <trkpt lat="35.901628" lon="14.515892">
        <ele>3.53</ele>
      </trkpt>
      <trkpt lat="35.901526" lon="14.515655">
        <ele>3.59</ele>
      </trkpt>
      <trkpt lat="35.901477" lon="14.515454">
        <ele>3.11</ele>
      </trkpt>
      <trkpt lat="35.901468" lon="14.515342">
        <ele>2.91</ele>
      </trkpt>
      <trkpt lat="35.901517" lon="14.51507">
        <ele>4.17</ele>
      </trkpt>
      <trkpt lat="35.901662" lon="14.514732">
        <ele>4.86</ele>
      </trkpt>
      <trkpt lat="35.901866" lon="14.514352">
        <ele>7.74</ele>
      </trkpt>
      <trkpt lat="35.901894" lon="14.514316">
        <ele>7.6</ele>
      </trkpt>
      <trkpt lat="35.902045" lon="14.514129">
        <ele>6.85</ele>
      </trkpt>
      <trkpt lat="35.902106" lon="14.514106">
        <ele>5.92</ele>
      </trkpt>
      <trkpt lat="35.902391" lon="14.513634">
        <ele>6.13</ele>
      </trkpt>
      <trkpt lat="35.902415" lon="14.513544">
        <ele>5.97</ele>
      </trkpt>
      <trkpt lat="35.902423" lon="14.513466">
        <ele>9.578626865989285</ele>
      </trkpt>
      <trkpt lat="35.902401003634495" lon="14.513369688820177">
        <ele>10.459421004750766</ele>
      </trkpt>
      <trkpt lat="35.90234319397476" lon="14.513192819256346">
        <ele>11.286288608273026</ele>
      </trkpt>
      <trkpt lat="35.9022665332746" lon="14.512989574407953">
        <ele>10.720301036559185</ele>
      </trkpt>
      <trkpt lat="35.902140859834105" lon="14.512626526357536">
        <ele>8.518817073825836</ele>
      </trkpt>
      <trkpt lat="35.90205917199114" lon="14.512407766634936">
        <ele>7.881239935872145</ele>
      </trkpt>
      <trkpt lat="35.90201518619406" lon="14.512291405080333">
        <ele>7.6326930453651585</ele>
      </trkpt>
      <trkpt lat="35.901956119514594" lon="14.512221588147526">
        <ele>8.31077623530291</ele>
      </trkpt>
      <trkpt lat="35.90176509505774" lon="14.512024549241346">
        <ele>10.867728264696733</ele>
      </trkpt>
      <trkpt lat="35.9015476785021" lon="14.511790274644454">
        <ele>10.216475735537573</ele>
      </trkpt>
      <trkpt lat="35.901341524197136" lon="14.51159386368829">
        <ele>8.498147474715672</ele>
      </trkpt>
      <trkpt lat="35.9011630657665" lon="14.511409236687797">
        <ele>8.023034226485665</ele>
      </trkpt>
      <trkpt lat="35.90109143093126" lon="14.511333213806012">
        <ele>8.87880818780088</ele>
      </trkpt>
      <trkpt lat="35.90101351225077" lon="14.51115634422203">
        <ele>8.41838317135488</ele>
      </trkpt>
      <trkpt lat="35.90095318806931" lon="14.511032225230707">
        <ele>8.318010945732578</ele>
      </trkpt>
      <trkpt lat="35.90079358011724" lon="14.51087087054114">
        <ele>9.755432600795757</ele>
      </trkpt>
      <trkpt lat="35.900621404249435" lon="14.510700206927964">
        <ele>10.219138067396585</ele>
      </trkpt>
      <trkpt lat="35.90047912470504" lon="14.510538852224414">
        <ele>9.994240834726952</ele>
      </trkpt>
      <trkpt lat="35.90037858369847" lon="14.510427145131985">
        <ele>10.153979974100366</ele>
      </trkpt>
      <trkpt lat="35.90030569138851" lon="14.510318541014101">
        <ele>9.72320322050122</ele>
      </trkpt>
      <trkpt lat="35.90025919108659" lon="14.51025493003118">
        <ele>9.795018031722359</ele>
      </trkpt>
      <trkpt lat="35.900207663693635" lon="14.510239415156946">
        <ele>11.13340515070407</ele>
      </trkpt>
      <trkpt lat="35.90011843325067" lon="14.510250275569007">
        <ele>14.404991171140761</ele>
      </trkpt>
      <trkpt lat="35.900079473447946" lon="14.510236312182485">
        <ele>15.40207555079733</ele>
      </trkpt>
      <trkpt lat="35.900041770394964" lon="14.510168046736538">
        <ele>15.217516824475446</ele>
      </trkpt>
      <trkpt lat="35.899975161621825" lon="14.510005140551186">
        <ele>13.729390435075999</ele>
      </trkpt>
      <trkpt lat="35.89992614758485" lon="14.509865506685657">
        <ele>13.550974382886942</ele>
      </trkpt>
      <trkpt lat="35.89987336320348" lon="14.509707254971403">
        <ele>15.489142844239767</ele>
      </trkpt>
      <trkpt lat="35.89982434909608" lon="14.509601753812177">
        <ele>18.2983446958242</ele>
      </trkpt>
      <trkpt lat="35.899792929785036" lon="14.509521076468275">
        <ele>20.359024465666156</ele>
      </trkpt>
      <trkpt lat="35.89977030787351" lon="14.509438847635806">
        <ele>22.26741723185902</ele>
      </trkpt>
      <trkpt lat="35.89972632080506" lon="14.50933024351869">
        <ele>24.968665572506435</ele>
      </trkpt>
      <trkpt lat="35.89968359048616" lon="14.509254220636109">
        <ele>27.18279574838016</ele>
      </trkpt>
      <trkpt lat="35.89970244210018" lon="14.509216984938632">
        <ele>27.171261235523822</ele>
      </trkpt>
      <trkpt lat="35.8997916730128" lon="14.509203021552054">
        <ele>24.67320465513674</ele>
      </trkpt>
      <trkpt lat="35.89990980955817" lon="14.509193712627706">
        <ele>20.377492001249028</ele>
      </trkpt>
      <trkpt lat="35.899941228816516" lon="14.509167337345673">
        <ele>19.361386247312183</ele>
      </trkpt>
      <trkpt lat="35.89996510744936" lon="14.509123895699133">
        <ele>18.88254182296805</ele>
      </trkpt>
      <trkpt lat="35.900046797453584" lon="14.509071145127479">
        <ele>15.832193502108566</ele>
      </trkpt>
      <trkpt lat="35.900113406164564" lon="14.508892724076787">
        <ele>15.476734321298656</ele>
      </trkpt>
      <trkpt lat="35.900124717072075" lon="14.508749987236769">
        <ele>16.853999117242225</ele>
      </trkpt>
      <trkpt lat="35.900110892629556" lon="14.508448998681644">
        <ele>18.333522757864557</ele>
      </trkpt>
      <trkpt lat="35.900094554648376" lon="14.508134046740793">
        <ele>11.79774190407001</ele>
      </trkpt>
      <trkpt lat="35.90003800007301" lon="14.508006824774156">
        <ele>10.371821212768038</ele>
      </trkpt>
      <trkpt lat="35.89992237725569" lon="14.507857881977003">
        <ele>15.936328505657388</ele>
      </trkpt>
      <trkpt lat="35.899764023998316" lon="14.507667049027447">
        <ele>23.703919609187512</ele>
      </trkpt>
      <trkpt lat="35.89963834658418" lon="14.507513451775424">
        <ele>31.280319360030298</ele>
      </trkpt>
      <trkpt lat="35.899545345169685" lon="14.50740329617065">
        <ele>37.641895044182505</ele>
      </trkpt>
      <trkpt lat="35.89946114109155" lon="14.50732882477567">
        <ele>43.59375532820826</ele>
      </trkpt>
      <trkpt lat="35.89932666573105" lon="14.50690061425405">
        <ele>31.751853284619674</ele>
      </trkpt>
      <trkpt lat="35.899234920732084" lon="14.506596522725204">
        <ele>23.74248734246097</ele>
      </trkpt>
      <trkpt lat="35.89915322988924" lon="14.50635759366611">
        <ele>18.420555159478354</ele>
      </trkpt>
      <trkpt lat="35.89910672891095" lon="14.506196238977367">
        <ele>15.672490974637402</ele>
      </trkpt>
      <trkpt lat="35.899003577277725" lon="14.50601925174135">
        <ele>15.527793818968346</ele>
      </trkpt>
      <trkpt lat="35.89891434547734" lon="14.505868757463787">
        <ele>15.506561944726855</ele>
      </trkpt>
      <trkpt lat="35.89876478772635" lon="14.505693439388494">
        <ele>15.475972553831525</ele>
      </trkpt>
      <trkpt lat="35.89863779788121" lon="14.505569220298327">
        <ele>14.900549653408628</ele>
      </trkpt>
      <trkpt lat="35.898562390383915" lon="14.505516469726643">
        <ele>14.557188523285205</ele>
      </trkpt>
      <trkpt lat="35.89837010093994" lon="14.505457513205897">
        <ele>15.335885364969727</ele>
      </trkpt>
      <trkpt lat="35.898304747559195" lon="14.505451307256067">
        <ele>15.792979009524373</ele>
      </trkpt>
      <trkpt lat="35.8980873214942" lon="14.50551181525907">
        <ele>18.56498979742173</ele>
      </trkpt>
      <trkpt lat="35.897852299590014" lon="14.505569220292927">
        <ele>20.87685219154949</ele>
      </trkpt>
      <trkpt lat="35.897607213121034" lon="14.505648322929375">
        <ele>23.74343914141958</ele>
      </trkpt>
      <trkpt lat="35.897408637305176" lon="14.505722794324328">
        <ele>24.927203408558853</ele>
      </trkpt>
      <trkpt lat="35.897162025073285" lon="14.50579726571263">
        <ele>25.6158560315891</ele>
      </trkpt>
      <trkpt lat="35.89675333093838" lon="14.505936623926914">
        <ele>29.598880571454856</ele>
      </trkpt>
      <trkpt lat="35.89653841425766" lon="14.505995580439304">
        <ele>31.434130485250826</ele>
      </trkpt>
      <trkpt lat="35.896506993643" lon="14.505962999204002">
        <ele>31.349270250746475</ele>
      </trkpt>
      <trkpt lat="35.89644917967837" lon="14.505910248633171">
        <ele>31.351431201482157</ele>
      </trkpt>
      <trkpt lat="35.89640770441703" lon="14.50589938822111">
        <ele>31.576451976106757</ele>
      </trkpt>
      <trkpt lat="35.89637377009612" lon="14.505888527809077">
        <ele>31.74963638433072</ele>
      </trkpt>
      <trkpt lat="35.89632978114018" lon="14.505910248633171">
        <ele>32.18775982185141</ele>
      </trkpt>
      <trkpt lat="35.89632098334579" lon="14.505986271514956">
        <ele>32.53369133925869</ele>
      </trkpt>
      <trkpt lat="35.896283278502565" lon="14.506068500347396">
        <ele>32.98033053787925</ele>
      </trkpt>
      <trkpt lat="35.8962191802279" lon="14.506116596456906">
        <ele>33.939359307381636</ele>
      </trkpt>
      <trkpt lat="35.89603316925441" lon="14.506174001489967">
        <ele>35.90340106791689</ele>
      </trkpt>
      <trkpt lat="35.89586475353693" lon="14.506220546111791">
        <ele>37.067109649884515</ele>
      </trkpt>
      <trkpt lat="35.89571993331957" lon="14.50618782110098">
        <ele>37.159213712256445</ele>
      </trkpt>
      <trkpt lat="35.895635725172085" lon="14.50615368837802">
        <ele>37.094371025880406</ele>
      </trkpt>
      <trkpt lat="35.895587965287135" lon="14.506096283344135">
        <ele>37.005491916963486</ele>
      </trkpt>
      <trkpt lat="35.895551872452884" lon="14.506042806191289">
        <ele>36.89828720386181</ele>
      </trkpt>
      <trkpt lat="35.895517937765106" lon="14.50600867346833">
        <ele>36.84653458008988</ele>
      </trkpt>
      <trkpt lat="35.89545383887007" lon="14.506011776442847">
        <ele>36.69382280231535</ele>
      </trkpt>
      <trkpt lat="35.8953935104515" lon="14.506070732964389">
        <ele>36.69941582105821</ele>
      </trkpt>
      <trkpt lat="35.895345750421114" lon="14.506191748981195">
        <ele>36.612361079184325</ele>
      </trkpt>
      <trkpt lat="35.895277880854294" lon="14.506308110535798">
        <ele>37.41626749449974</ele>
      </trkpt>
      <trkpt lat="35.89520121331046" lon="14.506371721518718">
        <ele>38.46443809415362</ele>
      </trkpt>
      <trkpt lat="35.89511323406643" lon="14.506412060190911">
        <ele>39.36887419680941</ele>
      </trkpt>
      <trkpt lat="35.89495361433853" lon="14.506455501838246">
        <ele>40.66832350045502</ele>
      </trkpt>
      <trkpt lat="35.89483798409812" lon="14.506483428611318">
        <ele>41.20226109689223</ele>
      </trkpt>
      <trkpt lat="35.89472612424892" lon="14.506492737535694">
        <ele>41.53758541075513</ele>
      </trkpt>
      <trkpt lat="35.89467838073803" lon="14.50648812486827">
        <ele>41.68237714463612</ele>
      </trkpt>
      <trkpt lat="35.89459794204822" lon="14.506402793061284">
        <ele>41.5672102982644</ele>
      </trkpt>
      <trkpt lat="35.89453761297737" lon="14.506340733566077">
        <ele>41.820276236278005</ele>
      </trkpt>
      <trkpt lat="35.89449613671454" lon="14.50625850473358">
        <ele>41.879023683839485</ele>
      </trkpt>
      <trkpt lat="35.89446848586098" lon="14.50625074729686">
        <ele>42.05460047232953</ele>
      </trkpt>
      <trkpt lat="35.89443078013478" lon="14.506274019607787">
        <ele>42.36779636476822</ele>
      </trkpt>
      <trkpt lat="35.89440187239994" lon="14.506309703817607">
        <ele>42.608143476883555</ele>
      </trkpt>
      <trkpt lat="35.894408156690815" lon="14.506396587112249">
        <ele>42.70529518250804</ele>
      </trkpt>
      <trkpt lat="35.89441192726531" lon="14.506452440658478">
        <ele>42.72212346538436</ele>
      </trkpt>
      <trkpt lat="35.894376735230665" lon="14.506421410910036">
        <ele>42.84865643183003</ele>
      </trkpt>
      <trkpt lat="35.894361" lon="14.50636">
        <ele>42.51</ele>
      </trkpt>
      <trkpt lat="35.894356" lon="14.506365">
        <ele>42.57</ele>
      </trkpt>
      <trkpt lat="35.894185" lon="14.506111">
        <ele>42.67</ele>
      </trkpt>
      <trkpt lat="35.893905" lon="14.505697">
        <ele>43.14</ele>
      </trkpt>
      <trkpt lat="35.893599" lon="14.505252">
        <ele>43.81</ele>
      </trkpt>
      <trkpt lat="35.893489" lon="14.505087">
        <ele>43.99</ele>
      </trkpt>
      <trkpt lat="35.893484" lon="14.50508">
        <ele>44</ele>
      </trkpt>
      <trkpt lat="35.893424" lon="14.505143">
        <ele>44</ele>
      </trkpt>
      <trkpt lat="35.893422" lon="14.505142">
        <ele>44.01</ele>
      </trkpt>
      <trkpt lat="35.893776" lon="14.505667">
        <ele>43.72</ele>
      </trkpt>
      <trkpt lat="35.894075" lon="14.506103">
        <ele>43.1</ele>
      </trkpt>
      <trkpt lat="35.894296" lon="14.506428">
        <ele>43</ele>
      </trkpt>
      <trkpt lat="35.894319" lon="14.506458">
        <ele>43</ele>
      </trkpt>
      <trkpt lat="35.894407" lon="14.506576">
        <ele>42.7398394519696</ele>
      </trkpt>
      <trkpt lat="35.89446079326093" lon="14.506668529952293">
        <ele>42.50285751933998</ele>
      </trkpt>
      <trkpt lat="35.89449849897217" lon="14.506772479608031">
        <ele>42.431890452333164</ele>
      </trkpt>
      <trkpt lat="35.894528663528234" lon="14.506832987616434">
        <ele>42.157167409830784</ele>
      </trkpt>
      <trkpt lat="35.894581451473655" lon="14.506916767935707">
        <ele>41.93927900687967</ele>
      </trkpt>
      <trkpt lat="35.89462795511096" lon="14.506983481893997">
        <ele>41.97383305172352</ele>
      </trkpt>
      <trkpt lat="35.894645551074404" lon="14.506930731322285">
        <ele>42.23702169698823</ele>
      </trkpt>
      <trkpt lat="35.89466691759688" lon="14.50689659860015">
        <ele>42.45111805894449</ele>
      </trkpt>
      <trkpt lat="35.894681999844295" lon="14.506893495624809">
        <ele>42.553149518288805</ele>
      </trkpt>
      <trkpt lat="35.894724" lon="14.506929">
        <ele>43.85</ele>
      </trkpt>
      <trkpt lat="35.894931" lon="14.507251">
        <ele>46.05</ele>
      </trkpt>
      <trkpt lat="35.895106" lon="14.507521">
        <ele>47.09</ele>
      </trkpt>
      <trkpt lat="35.895088" lon="14.507551">
        <ele>46.79</ele>
      </trkpt>
      <trkpt lat="35.895084" lon="14.507575">
        <ele>46.62</ele>
      </trkpt>
      <trkpt lat="35.895096" lon="14.50762">
        <ele>46.44</ele>
      </trkpt>
      <trkpt lat="35.895119" lon="14.50764">
        <ele>46.52</ele>
      </trkpt>
      <trkpt lat="35.895147" lon="14.50765">
        <ele>46.66</ele>
      </trkpt>
      <trkpt lat="35.895184" lon="14.507633">
        <ele>46.98</ele>
      </trkpt>
      <trkpt lat="35.895371" lon="14.507933">
        <ele>45.15</ele>
      </trkpt>
      <trkpt lat="35.895401" lon="14.507976">
        <ele>45</ele>
      </trkpt>
      <trkpt lat="35.895437" lon="14.508029">
        <ele>44.78835065513394</ele>
      </trkpt>
      <trkpt lat="35.89541097169577" lon="14.508117619176971">
        <ele>44.42617532932397</ele>
      </trkpt>
      <trkpt lat="35.895412228538206" lon="14.508213811395109">
        <ele>44.13891262491234</ele>
      </trkpt>
      <trkpt lat="35.895417255906565" lon="14.50837826905925">
        <ele>43.892559587955475</ele>
      </trkpt>
      <trkpt lat="35.89545370432113" lon="14.508527211849128">
        <ele>44.172027403023094</ele>
      </trkpt>
      <trkpt lat="35.89547758430703" lon="14.50859392580739">
        <ele>44.45220754563343</ele>
      </trkpt>
      <trkpt lat="35.895582854698844" lon="14.5086371796923">
        <ele>44.95669875910971</ele>
      </trkpt>
    </trkseg>
  </trk>
</gpx>
