<?xml version="1.0" encoding="UTF-8"?>
<gpx creator="https://gpx.studio" version="1.1" xmlns="http://www.topografix.com/GPX/1/1" xmlns:xsi="http://www.w3.org/2001/XMLSchema-instance" xsi:schemaLocation="http://www.topografix.com/GPX/1/1 http://www.topografix.com/GPX/1/1/gpx.xsd http://www.garmin.com/xmlschemas/GpxExtensions/v3 http://www.garmin.com/xmlschemas/GpxExtensionsv3.xsd http://www.garmin.com/xmlschemas/TrackPointExtension/v1 http://www.garmin.com/xmlschemas/TrackPointExtensionv1.xsd http://www.garmin.com/xmlschemas/PowerExtension/v1 http://www.garmin.com/xmlschemas/PowerExtensionv1.xsd http://www.topografix.com/GPX/gpx_style/0/2 http://www.topografix.com/GPX/gpx_style/0/2/gpx_style.xsd" xmlns:gpxtpx="http://www.garmin.com/xmlschemas/TrackPointExtension/v1" xmlns:gpxx="http://www.garmin.com/xmlschemas/GpxExtensions/v3" xmlns:gpxpx="http://www.garmin.com/xmlschemas/PowerExtension/v1" xmlns:gpx_style="http://www.topografix.com/GPX/gpx_style/0/2">
  <metadata>
    <name>New file 15</name>
    <author>
      <name>gpx.studio</name>
      <link href="https://gpx.studio"/>
    </author>
  </metadata>
  <trk>
    <name>New file 15</name>
    <trkseg>
      <trkpt lat="35.88495132019513" lon="14.522485610604434">
        <ele>23.65131006995216</ele>
      </trkpt>
      <trkpt lat="35.88492657332762" lon="14.52204271816126">
        <ele>20.360365516897545</ele>
      </trkpt>
      <trkpt lat="35.88485851940321" lon="14.52172963902106">
        <ele>17.968105520856575</ele>
      </trkpt>
      <trkpt lat="35.884580116375076" lon="14.52143946810952">
        <ele>14.02846176914965</ele>
      </trkpt>
      <trkpt lat="35.88436358001013" lon="14.52130965480768">
        <ele>11.243552026658861</ele>
      </trkpt>
      <trkpt lat="35.88423365790685" lon="14.521240930118296">
        <ele>10.394574333156925</ele>
      </trkpt>
      <trkpt lat="35.88414085627396" lon="14.521134025046223">
        <ele>9.29022527433699</ele>
      </trkpt>
      <trkpt lat="35.8839428790932" lon="14.521088208586633">
        <ele>10.20566020006082</ele>
      </trkpt>
      <trkpt lat="35.88359023101509" lon="14.521034756050085">
        <ele>8.891998080769554</ele>
      </trkpt>
      <trkpt lat="35.88329326299457" lon="14.520943123130877">
        <ele>9.079619524534792</ele>
      </trkpt>
      <trkpt lat="35.88302104133115" lon="14.520843854134768">
        <ele>8.98965781298466</ele>
      </trkpt>
      <trkpt lat="35.88282306135112" lon="14.520813309829038">
        <ele>9.42674225429073</ele>
      </trkpt>
      <trkpt lat="35.88261270708041" lon="14.520813309829038">
        <ele>8.676408895698842</ele>
      </trkpt>
      <trkpt lat="35.88243328682029" lon="14.520813309829038">
        <ele>6.817124139728966</ele>
      </trkpt>
      <trkpt lat="35.88230336155043" lon="14.520820945904944">
        <ele>6.8141627346365645</ele>
      </trkpt>
      <trkpt lat="35.882290987704366" lon="14.520736949062695">
        <ele>5.774008411692062</ele>
      </trkpt>
      <trkpt lat="35.882062071198064" lon="14.52067586045024">
        <ele>9.035974766919857</ele>
      </trkpt>
      <trkpt lat="35.88187646273447" lon="14.520576591454102">
        <ele>10.75943239838312</ele>
      </trkpt>
      <trkpt lat="35.8815361794213" lon="14.52040859776855">
        <ele>10.364475716716008</ele>
      </trkpt>
      <trkpt lat="35.88131834647963" lon="14.520301162707284">
        <ele>12.409059135583439</ele>
      </trkpt>
      <trkpt lat="35.88131215947948" lon="14.520171349405473">
        <ele>10.139126386044078</ele>
      </trkpt>
      <trkpt lat="35.88121935442339" lon="14.520110260791938">
        <ele>11.121967883423732</ele>
      </trkpt>
      <trkpt lat="35.88112654925854" lon="14.519949903183345">
        <ele>9.354752677455853</ele>
      </trkpt>
      <trkpt lat="35.88114511030024" lon="14.519827725957413">
        <ele>6.600169882520647</ele>
      </trkpt>
      <trkpt lat="35.88159437074144" lon="14.51985112203708">
        <ele>0.9640346528565831</ele>
      </trkpt>
      <trkpt lat="35.88204363118264" lon="14.519874518116747">
        <ele>0</ele>
      </trkpt>
      <trkpt lat="35.88249289162384" lon="14.519897914196413">
        <ele>0</ele>
      </trkpt>
      <trkpt lat="35.88261141884705" lon="14.519904086723756">
        <ele>0</ele>
      </trkpt>
      <trkpt lat="35.88280939935612" lon="14.519911722800686">
        <ele>0</ele>
      </trkpt>
      <trkpt lat="35.88286508127716" lon="14.519736093048294">
        <ele>0.8134055086411536</ele>
      </trkpt>
      <trkpt lat="35.88295169753283" lon="14.51975900127809">
        <ele>0.5465052868239582</ele>
      </trkpt>
      <trkpt lat="35.88308162173915" lon="14.519568099362772">
        <ele>3.910243460066935</ele>
      </trkpt>
      <trkpt lat="35.883124929760825" lon="14.51940010567722">
        <ele>8.185328955076796</ele>
      </trkpt>
      <trkpt lat="35.88326722737847" lon="14.519277928452311">
        <ele>9.812043447010605</ele>
      </trkpt>
      <trkpt lat="35.88363843735219" lon="14.519178659456145">
        <ele>7.801592841919046</ele>
      </trkpt>
      <trkpt lat="35.88371886595077" lon="14.519216839838833">
        <ele>7.734867783728987</ele>
      </trkpt>
      <trkpt lat="35.883811668078096" lon="14.519262656298423">
        <ele>7.807797549714231</ele>
      </trkpt>
      <trkpt lat="35.88426129313437" lon="14.519255719394305">
        <ele>8.366861345465347</ele>
      </trkpt>
      <trkpt lat="35.884306610921186" lon="14.519255020222545">
        <ele>8.466443389498</ele>
      </trkpt>
      <trkpt lat="35.88457264142042" lon="14.519277928452311">
        <ele>11.219629116261334</ele>
      </trkpt>
      <trkpt lat="35.88467162928549" lon="14.519407741754208">
        <ele>10.237203588302915</ele>
      </trkpt>
      <trkpt lat="35.88478917721457" lon="14.519346653141696">
        <ele>14.465004067402333</ele>
      </trkpt>
      <trkpt lat="35.88496859213764" lon="14.519247384145558">
        <ele>19.701311252906294</ele>
      </trkpt>
      <trkpt lat="35.88498715227888" lon="14.519132842996584">
        <ele>21.67841524065658</ele>
      </trkpt>
      <trkpt lat="35.88515419335471" lon="14.518980121463898">
        <ele>24.109581833260155</ele>
      </trkpt>
      <trkpt lat="35.8853583541911" lon="14.518850308162058">
        <ele>27.47075324330282</ele>
      </trkpt>
      <trkpt lat="35.8855068344688" lon="14.518751039165892">
        <ele>29.14505753107369</ele>
      </trkpt>
      <trkpt lat="35.88560427450754" lon="14.51868613253393">
        <ele>29.464721167777345</ele>
      </trkpt>
      <trkpt lat="35.885582621177136" lon="14.518605953729633">
        <ele>29.956704000216416</ele>
      </trkpt>
      <trkpt lat="35.88552384782366" lon="14.518502866695542">
        <ele>30.99096906129094</ele>
      </trkpt>
      <trkpt lat="35.885502194471286" lon="14.51843796004411">
        <ele>31.700642110008022</ele>
      </trkpt>
      <trkpt lat="35.885344434157744" lon="14.518541047078173">
        <ele>30.414263288490474</ele>
      </trkpt>
      <trkpt lat="35.885208326968566" lon="14.518609771767586">
        <ele>28.50676147845894</ele>
      </trkpt>
      <trkpt lat="35.88507840625108" lon="14.51868613253393">
        <ele>26.342799298966174</ele>
      </trkpt>
      <trkpt lat="35.885016539167594" lon="14.518716676839631">
        <ele>25.51492617520834</ele>
      </trkpt>
      <trkpt lat="35.88504437936105" lon="14.518747221146384">
        <ele>25.46516742673964</ele>
      </trkpt>
      <trkpt lat="35.88497013882342" lon="14.518808309759862">
        <ele>24.41272096557537</ele>
      </trkpt>
      <trkpt lat="35.88490517829598" lon="14.518838854065564">
        <ele>23.794240538741793</ele>
      </trkpt>
      <trkpt lat="35.88489589821623" lon="14.518907578754977">
        <ele>23.313353413119177</ele>
      </trkpt>
      <trkpt lat="35.884874244692995" lon="14.51894575913866">
        <ele>22.94670651317574</ele>
      </trkpt>
      <trkpt lat="35.88480309735941" lon="14.518957213253515">
        <ele>21.57308776595164</ele>
      </trkpt>
      <trkpt lat="35.8847319499619" lon="14.51897248540638">
        <ele>20.06328574463259</ele>
      </trkpt>
      <trkpt lat="35.88466389587025" lon="14.519003029713161">
        <ele>17.594458698295057</ele>
      </trkpt>
      <trkpt lat="35.88460512183498" lon="14.519014483828045">
        <ele>15.59270704339724</ele>
      </trkpt>
      <trkpt lat="35.88453397425961" lon="14.518983939521291">
        <ele>13.607571270759042</ele>
      </trkpt>
      <trkpt lat="35.88452778751062" lon="14.518907578754977">
        <ele>13.67105711335971</ele>
      </trkpt>
      <trkpt lat="35.884496853760254" lon="14.518812127797844">
        <ele>12.48537796116428</ele>
      </trkpt>
      <trkpt lat="35.88445045311164" lon="14.51872431291659">
        <ele>10.397431999462071</ele>
      </trkpt>
      <trkpt lat="35.88436693187562" lon="14.518762493300244">
        <ele>8.202313739322335</ele>
      </trkpt>
      <trkpt lat="35.884354558351944" lon="14.518903760717023">
        <ele>8.323452628799714</ele>
      </trkpt>
      <trkpt lat="35.88444117297867" lon="14.519083208517458">
        <ele>10.372563117673318</ele>
      </trkpt>
      <trkpt lat="35.88457728148711" lon="14.519102298708304">
        <ele>13.997040640372122</ele>
      </trkpt>
      <trkpt lat="35.88468245608294" lon="14.519136661052983">
        <ele>16.814920557539022</ele>
      </trkpt>
      <trkpt lat="35.884735043328874" lon="14.519239748087045">
        <ele>16.091890530245937</ele>
      </trkpt>
      <trkpt lat="35.88484021771521" lon="14.519510828806716">
        <ele>10.68146368500218</ele>
      </trkpt>
      <trkpt lat="35.884945391961836" lon="14.51962536995569">
        <ele>9.229695088176271</ele>
      </trkpt>
      <trkpt lat="35.885059846131185" lon="14.519606279763877">
        <ele>11.907219718095993</ele>
      </trkpt>
      <trkpt lat="35.885035099297625" lon="14.519484102538968">
        <ele>15.077913315492664</ele>
      </trkpt>
      <trkpt lat="35.88493611188683" lon="14.51938483354283">
        <ele>16.122865485072523</ele>
      </trkpt>
      <trkpt lat="35.884781443810766" lon="14.519213021819326">
        <ele>17.666980424386832</ele>
      </trkpt>
      <trkpt lat="35.884710296393806" lon="14.519106116747253">
        <ele>18.1949841970345</ele>
      </trkpt>
      <trkpt lat="35.88470410965864" lon="14.519006847751115">
        <ele>18.86223474610597</ele>
      </trkpt>
      <trkpt lat="35.884796910631465" lon="14.518999211674156">
        <ele>21.094891535583884</ele>
      </trkpt>
      <trkpt lat="35.88486805797059" lon="14.518980121483366">
        <ele>22.54060106968973</ele>
      </trkpt>
      <trkpt lat="35.884923" lon="14.519015">
        <ele>23.11</ele>
      </trkpt>
      <trkpt lat="35.885097" lon="14.518896">
        <ele>25.13</ele>
      </trkpt>
      <trkpt lat="35.885045" lon="14.518762">
        <ele>25.81</ele>
      </trkpt>
      <trkpt lat="35.885007" lon="14.518713">
        <ele>26.09</ele>
      </trkpt>
      <trkpt lat="35.885391" lon="14.518485">
        <ele>31.23466748581268</ele>
      </trkpt>
      <trkpt lat="35.885492141125994" lon="14.518420778844643">
        <ele>31.929343385156244</ele>
      </trkpt>
      <trkpt lat="35.885576483663385" lon="14.518455628699712">
        <ele>31.287119355925824</ele>
      </trkpt>
      <trkpt lat="35.885621336986986" lon="14.518470900852577">
        <ele>30.992417028406635</ele>
      </trkpt>
      <trkpt lat="35.88567701693883" lon="14.51848808202493">
        <ele>30.64211048715515</ele>
      </trkpt>
      <trkpt lat="35.885709496892645" lon="14.518530080446567">
        <ele>30.15835383225931</ele>
      </trkpt>
      <trkpt lat="35.885776003423544" lon="14.518463264775619">
        <ele>30.314904550068178</ele>
      </trkpt>
      <trkpt lat="35.88586880314031" lon="14.5183735408759">
        <ele>30.603980669802674</ele>
      </trkpt>
      <trkpt lat="35.88594922947301" lon="14.51830672520498">
        <ele>30.856835121830645</ele>
      </trkpt>
      <trkpt lat="35.88603893567169" lon="14.518238000515595">
        <ele>30.851848528604023</ele>
      </trkpt>
      <trkpt lat="35.88615029494905" lon="14.518161639750247">
        <ele>30.74988825699497</ele>
      </trkpt>
      <trkpt lat="35.88638153946698" lon="14.5180030567426">
        <ele>30.894668684577717</ele>
      </trkpt>
      <trkpt lat="35.88655940413548" lon="14.517836972076537">
        <ele>30.54687003303907</ele>
      </trkpt>
      <trkpt lat="35.886802227429186" lon="14.517602162720095">
        <ele>28.313110602475255</ele>
      </trkpt>
      <trkpt lat="35.88693059867808" lon="14.51747044039871">
        <ele>26.402427051798437</ele>
      </trkpt>
      <trkpt lat="35.88718625459734" lon="14.517271293140169">
        <ele>23.25624502101709</ele>
      </trkpt>
      <trkpt lat="35.887361024194945" lon="14.517126207684413">
        <ele>21.522763852437492</ele>
      </trkpt>
      <trkpt lat="35.88770437572845" lon="14.516862763043491">
        <ele>21.53014174413591</ele>
      </trkpt>
      <trkpt lat="35.88796111509397" lon="14.516681406223569">
        <ele>22.802314897533506</ele>
      </trkpt>
      <trkpt lat="35.88824259946533" lon="14.516442778830168">
        <ele>24.984389543300495</ele>
      </trkpt>
      <trkpt lat="35.88847674388761" lon="14.516255694947318">
        <ele>27.718176019641415</ele>
      </trkpt>
      <trkpt lat="35.88880462455144" lon="14.515994159323071">
        <ele>30.94567417748549</ele>
      </trkpt>
      <trkpt lat="35.888957738169694" lon="14.515858618963762">
        <ele>32.000439921876385</ele>
      </trkpt>
      <trkpt lat="35.88924896675306" lon="14.51562853569061">
        <ele>33.712614285585005</ele>
      </trkpt>
      <trkpt lat="35.88936341470166" lon="14.515527357676007">
        <ele>33.23040866379539</ele>
      </trkpt>
      <trkpt lat="35.88942373179732" lon="14.515512085523142">
        <ele>33.3212970451315</ele>
      </trkpt>
      <trkpt lat="35.88949023520877" lon="14.515586537269996">
        <ele>33.851038133525606</ele>
      </trkpt>
      <trkpt lat="35.889549005617326" lon="14.515655261960376">
        <ele>33.838513012221455</ele>
      </trkpt>
      <trkpt lat="35.88959694986707" lon="14.515687715285566">
        <ele>33.55824973363732</ele>
      </trkpt>
      <trkpt lat="35.88978872657492" lon="14.515506358466695">
        <ele>31.736337852416447</ele>
      </trkpt>
      <trkpt lat="35.88988306817134" lon="14.51534027380066">
        <ele>31.008275007508363</ele>
      </trkpt>
      <trkpt lat="35.890020713906836" lon="14.515158916981733">
        <ele>27.594944279568388</ele>
      </trkpt>
      <trkpt lat="35.89025598083035" lon="14.514849193932463">
        <ele>21.18451132162284</ele>
      </trkpt>
      <trkpt lat="35.89034877529703" lon="14.514702199458213">
        <ele>17.95157820229393</ele>
      </trkpt>
      <trkpt lat="35.89034258900237" lon="14.514641110845758">
        <ele>18.258238343359224</ele>
      </trkpt>
      <trkpt lat="35.89033176298659" lon="14.51459338536668">
        <ele>18.128940273988103</ele>
      </trkpt>
      <trkpt lat="35.89030701780047" lon="14.514559023021945">
        <ele>18.60191772734807</ele>
      </trkpt>
      <trkpt lat="35.89032866983821" lon="14.51452275165775">
        <ele>17.265081259583656</ele>
      </trkpt>
      <trkpt lat="35.89033176298659" lon="14.514480753237137">
        <ele>16.551589341040643</ele>
      </trkpt>
      <trkpt lat="35.890336" lon="14.51442">
        <ele>12.17</ele>
      </trkpt>
      <trkpt lat="35.890337" lon="14.514406">
        <ele>12.05</ele>
      </trkpt>
      <trkpt lat="35.890369" lon="14.514404">
        <ele>11.3</ele>
      </trkpt>
      <trkpt lat="35.890402" lon="14.514369">
        <ele>10.57</ele>
      </trkpt>
      <trkpt lat="35.890431" lon="14.514319">
        <ele>10</ele>
      </trkpt>
      <trkpt lat="35.890537" lon="14.514138">
        <ele>8.17</ele>
      </trkpt>
      <trkpt lat="35.890552" lon="14.514147">
        <ele>8.12</ele>
      </trkpt>
      <trkpt lat="35.89057" lon="14.514158">
        <ele>8.06</ele>
      </trkpt>
      <trkpt lat="35.89059" lon="14.514157">
        <ele>7.79</ele>
      </trkpt>
      <trkpt lat="35.890622" lon="14.514133">
        <ele>7.02</ele>
      </trkpt>
      <trkpt lat="35.890636" lon="14.514101">
        <ele>6.62</ele>
      </trkpt>
      <trkpt lat="35.890637" lon="14.514072">
        <ele>6.5</ele>
      </trkpt>
      <trkpt lat="35.890617" lon="14.514028">
        <ele>6.66</ele>
      </trkpt>
      <trkpt lat="35.89068" lon="14.513976">
        <ele>5.36</ele>
      </trkpt>
      <trkpt lat="35.890696" lon="14.513963">
        <ele>5.03</ele>
      </trkpt>
      <trkpt lat="35.890684" lon="14.51404">
        <ele>5.5</ele>
      </trkpt>
      <trkpt lat="35.890665" lon="14.514159">
        <ele>6.22</ele>
      </trkpt>
      <trkpt lat="35.890677" lon="14.514186">
        <ele>5.77</ele>
      </trkpt>
      <trkpt lat="35.890637" lon="14.514227">
        <ele>6.36</ele>
      </trkpt>
      <trkpt lat="35.890627" lon="14.514237">
        <ele>6.5</ele>
      </trkpt>
      <trkpt lat="35.890447" lon="14.514407">
        <ele>12.435247730263702</ele>
      </trkpt>
      <trkpt lat="35.89041527793162" lon="14.5143948473754">
        <ele>12.951059478530661</ele>
      </trkpt>
      <trkpt lat="35.89038279990788" lon="14.514410119528264">
        <ele>13.851285694137221</ele>
      </trkpt>
      <trkpt lat="35.89034877529703" lon="14.514429209720134">
        <ele>14.971595746646091</ele>
      </trkpt>
      <trkpt lat="35.89034258900237" lon="14.514494116370486">
        <ele>16.44429116470592</ele>
      </trkpt>
      <trkpt lat="35.89033330955991" lon="14.514557114002486">
        <ele>17.57338303349238</ele>
      </trkpt>
      <trkpt lat="35.89035186844379" lon="14.514608657519545">
        <ele>17.445965406140672</ele>
      </trkpt>
      <trkpt lat="35.89037042732336" lon="14.514692654362818">
        <ele>16.882353246650915</ele>
      </trkpt>
      <trkpt lat="35.89040754506945" lon="14.514767106109645">
        <ele>14.603732725305786</ele>
      </trkpt>
      <trkpt lat="35.89042919708052" lon="14.514826285702611">
        <ele>13.133156147906485</ele>
      </trkpt>
      <trkpt lat="35.8904276505083" lon="14.514854920989848">
        <ele>12.567390566966036</ele>
      </trkpt>
      <trkpt lat="35.89039981220739" lon="14.514872102162201">
        <ele>13.637754148199978</ele>
      </trkpt>
      <trkpt lat="35.89039207934459" lon="14.514849193932463">
        <ele>14.604769687886005</ele>
      </trkpt>
      <trkpt lat="35.89040754506945" lon="14.514816740607216">
        <ele>14.349148892513275</ele>
      </trkpt>
      <trkpt lat="35.890421" lon="14.514832">
        <ele>6.14</ele>
      </trkpt>
      <trkpt lat="35.890436" lon="14.514813">
        <ele>5.89</ele>
      </trkpt>
      <trkpt lat="35.8904" lon="14.514751">
        <ele>8.49</ele>
      </trkpt>
      <trkpt lat="35.890414" lon="14.514737">
        <ele>7.89</ele>
      </trkpt>
      <trkpt lat="35.890456" lon="14.514694">
        <ele>6.43</ele>
      </trkpt>
      <trkpt lat="35.890374" lon="14.51455">
        <ele>11.25</ele>
      </trkpt>
      <trkpt lat="35.890542" lon="14.514388">
        <ele>8.03</ele>
      </trkpt>
      <trkpt lat="35.890714" lon="14.514221">
        <ele>7.112330768529164</ele>
      </trkpt>
      <trkpt lat="35.89078932736773" lon="14.51418306270719">
        <ele>5.674871549000371</ele>
      </trkpt>
      <trkpt lat="35.89084655024985" lon="14.514055158424242">
        <ele>4.705711720987603</ele>
      </trkpt>
      <trkpt lat="35.89089449371308" lon="14.51395970746708">
        <ele>3.7738608747073816</ele>
      </trkpt>
      <trkpt lat="35.89095790276633" lon="14.513934890217797">
        <ele>2.5467789662543767</ele>
      </trkpt>
      <trkpt lat="35.89100584616213" lon="14.5140360682324">
        <ele>1.9245981380153905</ele>
      </trkpt>
      <trkpt lat="35.891019765207275" lon="14.51413342820905">
        <ele>1.7587917593740858</ele>
      </trkpt>
      <trkpt lat="35.890951716519254" lon="14.514270877587848">
        <ele>1.9358255926727306</ele>
      </trkpt>
      <trkpt lat="35.8908156189669" lon="14.514496141847843">
        <ele>2.172596289738312</ele>
      </trkpt>
      <trkpt lat="35.89068570744901" lon="14.514679407686259">
        <ele>2.9227067051252296</ele>
      </trkpt>
      <trkpt lat="35.89054342316129" lon="14.514897035869382">
        <ele>6.09484811418031</ele>
      </trkpt>
      <trkpt lat="35.89045062892268" lon="14.515044030343574">
        <ele>6.891941342649297</ele>
      </trkpt>
      <trkpt lat="35.89038257974468" lon="14.515170025608512">
        <ele>6.2517278324733265</ele>
      </trkpt>
      <trkpt lat="35.890323809953756" lon="14.515315111063217">
        <ele>6.936087393271093</ele>
      </trkpt>
      <trkpt lat="35.8902464812149" lon="14.515536557285316">
        <ele>9.894149724921668</ele>
      </trkpt>
      <trkpt lat="35.890078151153915" lon="14.516051237663776">
        <ele>12.563376808051924</ele>
      </trkpt>
      <trkpt lat="35.89007790429528" lon="14.516051992450485">
        <ele>12.551657602847712</ele>
      </trkpt>
      <trkpt lat="35.890054" lon="14.516187">
        <ele>5.29</ele>
      </trkpt>
      <trkpt lat="35.890018" lon="14.516298">
        <ele>4.01</ele>
      </trkpt>
      <trkpt lat="35.889877" lon="14.516634">
        <ele>1.41</ele>
      </trkpt>
      <trkpt lat="35.889805" lon="14.516741">
        <ele>0.65</ele>
      </trkpt>
      <trkpt lat="35.889704" lon="14.516874">
        <ele>1.74</ele>
      </trkpt>
      <trkpt lat="35.889673" lon="14.516914">
        <ele>2.07</ele>
      </trkpt>
      <trkpt lat="35.889337" lon="14.517186">
        <ele>4.59</ele>
      </trkpt>
      <trkpt lat="35.889049" lon="14.517408">
        <ele>3.88</ele>
      </trkpt>
      <trkpt lat="35.888976" lon="14.517436">
        <ele>2.96</ele>
      </trkpt>
      <trkpt lat="35.888916" lon="14.517432">
        <ele>3.02</ele>
      </trkpt>
      <trkpt lat="35.888777" lon="14.517377">
        <ele>4.63</ele>
      </trkpt>
      <trkpt lat="35.888741" lon="14.517372">
        <ele>4.99</ele>
      </trkpt>
      <trkpt lat="35.888657" lon="14.517396">
        <ele>4.93</ele>
      </trkpt>
      <trkpt lat="35.888311" lon="14.517568">
        <ele>5.17</ele>
      </trkpt>
      <trkpt lat="35.888269" lon="14.517598">
        <ele>4.77</ele>
      </trkpt>
      <trkpt lat="35.88791" lon="14.517998">
        <ele>4.99</ele>
      </trkpt>
      <trkpt lat="35.887904" lon="14.518039">
        <ele>4.64</ele>
      </trkpt>
      <trkpt lat="35.887867" lon="14.518124">
        <ele>4.46</ele>
      </trkpt>
      <trkpt lat="35.887803" lon="14.518176">
        <ele>5.23</ele>
      </trkpt>
      <trkpt lat="35.887597" lon="14.518399">
        <ele>5.53</ele>
      </trkpt>
      <trkpt lat="35.88727" lon="14.518725">
        <ele>6.28</ele>
      </trkpt>
      <trkpt lat="35.886881" lon="14.519028">
        <ele>4.84</ele>
      </trkpt>
      <trkpt lat="35.88683" lon="14.519068">
        <ele>4.37</ele>
      </trkpt>
      <trkpt lat="35.886787" lon="14.519062">
        <ele>5.13</ele>
      </trkpt>
      <trkpt lat="35.886646" lon="14.51919">
        <ele>4.26</ele>
      </trkpt>
      <trkpt lat="35.886643" lon="14.51922">
        <ele>3.71</ele>
      </trkpt>
      <trkpt lat="35.886119" lon="14.519777">
        <ele>2.08</ele>
      </trkpt>
      <trkpt lat="35.886074" lon="14.519825">
        <ele>1.94</ele>
      </trkpt>
      <trkpt lat="35.885977" lon="14.519906">
        <ele>2.33</ele>
      </trkpt>
      <trkpt lat="35.885888" lon="14.519964">
        <ele>2.46</ele>
      </trkpt>
      <trkpt lat="35.885802" lon="14.519996">
        <ele>3.25</ele>
      </trkpt>
      <trkpt lat="35.885595" lon="14.520051">
        <ele>4.24</ele>
      </trkpt>
      <trkpt lat="35.885596" lon="14.520091">
        <ele>4.43</ele>
      </trkpt>
      <trkpt lat="35.885597" lon="14.520118">
        <ele>4.43</ele>
      </trkpt>
      <trkpt lat="35.885384" lon="14.520167">
        <ele>4.47</ele>
      </trkpt>
      <trkpt lat="35.885363" lon="14.520155">
        <ele>4.42</ele>
      </trkpt>
      <trkpt lat="35.885214" lon="14.520088">
        <ele>2.9275724724963768</ele>
      </trkpt>
      <trkpt lat="35.8851366685809" lon="14.52005407364976">
        <ele>2.978257934417743</ele>
      </trkpt>
      <trkpt lat="35.8850670681601" lon="14.519991076017845">
        <ele>3.061031987376815</ele>
      </trkpt>
      <trkpt lat="35.88496344075321" lon="14.519935714462832">
        <ele>2.828561134451298</ele>
      </trkpt>
      <trkpt lat="35.88487837337753" lon="14.519899443098637">
        <ele>2.4170977795137576</ele>
      </trkpt>
      <trkpt lat="35.88480103932088" lon="14.51987844388833">
        <ele>1.9435655081635639</ele>
      </trkpt>
      <trkpt lat="35.88460925053356" lon="14.519838354486183">
        <ele>0.8735103023210476</ele>
      </trkpt>
      <trkpt lat="35.88435714037277" lon="14.519800174103523">
        <ele>1.45105141273991</ele>
      </trkpt>
      <trkpt lat="35.88425304144795" lon="14.51979311883511">
        <ele>1.6862586714560166</ele>
      </trkpt>
      <trkpt lat="35.88405661124523" lon="14.519781664720227">
        <ele>1.3369648825926204</ele>
      </trkpt>
      <trkpt lat="35.883789032309835" lon="14.519783573739687">
        <ele>0.2809710529400036</ele>
      </trkpt>
      <trkpt lat="35.883339382326184" lon="14.519787311566809">
        <ele>0.2166665168479085</ele>
      </trkpt>
      <trkpt lat="35.88331777035255" lon="14.519787491221706">
        <ele>0.21457338565960526</ele>
      </trkpt>
      <trkpt lat="35.883167739251476" lon="14.519818035524708">
        <ele>0</ele>
      </trkpt>
      <trkpt lat="35.88305792249638" lon="14.519825671601637">
        <ele>0</ele>
      </trkpt>
      <trkpt lat="35.882962026050535" lon="14.519825671601637">
        <ele>0</ele>
      </trkpt>
      <trkpt lat="35.8828862368414" lon="14.519850488849926">
        <ele>0</ele>
      </trkpt>
      <trkpt lat="35.88285994260856" lon="14.519898214329032">
        <ele>0</ele>
      </trkpt>
      <trkpt lat="35.882818181162904" lon="14.520028027630843">
        <ele>0</ele>
      </trkpt>
      <trkpt lat="35.88277023280975" lon="14.520222747584171">
        <ele>0.4282653934787959</ele>
      </trkpt>
      <trkpt lat="35.88273775165045" lon="14.520329652657239">
        <ele>1.1020651636645198</ele>
      </trkpt>
      <trkpt lat="35.88267124256814" lon="14.520304835407956">
        <ele>0.906461626291275</ele>
      </trkpt>
      <trkpt lat="35.88260163998062" lon="14.520272382082766">
        <ele>0.7174073045607656</ele>
      </trkpt>
    </trkseg>
  </trk>
</gpx>
